{
  "type": "Feature",
  "properties": {
    "STATEFP": "51",
    "COUNTYFP": "059",
    "NAME": "Fairfax",
    "GEOID": "51059"
  },
  "geometry": {
    "type": "Polygon",
    "coordinates": [[
      [-77.5352, 38.8423],
      [-77.3283, 38.8495],
      [-77.2261, 38.8898],
      [-77.1190, 38.9342],
      [-77.0396, 38.9855],
      [-77.0411, 38.8717],
      [-77.0862, 38.7596],
      [-77.1290, 38.6991],
      [-77.2484, 38.6326],
      [-77.3242, 38.6427],
      [-77.4707, 38.7135],
      [-77.5352, 38.7635],
      [-77.5352, 38.8423]
    ]]
  }
}
